     2.100          NAVIGATION                              RINEX VERSION / TYPE
fic2rin                                 12/04/2011 00:04:34 PGM / RUN BY / DATE
                                                            END OF HEADER
30 11 12  3 10  0  0.0  .335015356541D-04 -.875388650456D-11  .000000000000D+00
     .126000000000D+03 -.271875000000D+01  .484770192624D-08  .124340913790D+01
    -.245869159698D-06  .115743351635D-01  .665523111820D-05  .515545274925D+04
     .554400000000D+06 -.203028321266D-06 -.167719192440D+00 -.216066837311D-06
     .957989020797D+00  .251562500000D+03  .158492617561D+01 -.829927426951D-08
     .310012913282D-09  .100000000000D+01  .166400000000D+04  .000000000000D+00
     .240000000000D+02  .000000000000D+00 -.419095158577D-08  .126000000000D+03
     .547206000000D+06  .400000000000D+01
31 11 12  3 10  0  0.0  .177548266947D-03  .500222085975D-11  .000000000000D+00
     .520000000000D+02 -.178125000000D+02  .408302721733D-08 -.142462557241D+01
    -.907108187675D-06  .791835039854D-02  .895373523235D-05  .515353839684D+04
     .554400000000D+06 -.167638063431D-06 -.109977642350D+01 -.186264514923D-07
     .980387235784D+00  .223031250000D+03 -.951544623813D+00 -.789390024120D-08
     .165721188667D-09  .100000000000D+01  .166400000000D+04  .000000000000D+00
     .240000000000D+01  .000000000000D+00 -.130385160446D-07  .520000000000D+02
     .547206000000D+06  .400000000000D+01
32 11 12  3 10  0  0.0 -.371347647160D-03 -.591171556152D-11  .000000000000D+00
     .390000000000D+02  .458750000000D+02  .475448375762D-08 -.686419317606D+00
     .238977372646D-05  .120589068392D-01  .600516796112D-05  .515378894234D+04
     .554400000000D+06 -.147148966789D-06 -.312147979167D+01 -.180676579475D-06
     .953498242652D+00  .262312500000D+03 -.663701545719D+00 -.836534845034D-08
     .125005206969D-09  .100000000000D+01  .166400000000D+04  .000000000000D+00
     .240000000000D+01  .000000000000D+00 -.279396772385D-08  .390000000000D+02
     .547206000000D+06  .400000000000D+01
29 11 12  3  9 59 44.0  .262759625912D-03  .329691829393D-11  .000000000000D+00
     .370000000000D+02 -.454062500000D+02  .465090801470D-08 -.208430282360D+01
    -.243447721004D-05  .209563830867D-02  .742450356483D-05  .515367601204D+04
     .554384000000D+06  .111758708954D-07  .102130576544D+01  .521540641785D-07
     .962337691079D+00  .235531250000D+03 -.118820946005D+01 -.807176479283D-08
    -.247510309798D-09  .100000000000D+01  .166400000000D+04  .000000000000D+00
     .240000000000D+01  .000000000000D+00 -.931322574615D-08  .370000000000D+02
     .549576000000D+06  .400000000000D+01
11 11 12  3  9 59 44.0 -.209654681385D-03 -.352429196937D-11  .000000000000D+00
     .900000000000D+01 -.243750000000D+01  .618240037893D-08 -.124077407719D+01
    -.726431608200D-07  .126600373769D-01  .863522291183D-05  .515367305374D+04
     .554384000000D+06  .251457095146D-06  .176314275909D+01  .253319740295D-06
     .887588834129D+00  .172687500000D+03  .100843675305D+01 -.879893793965D-08
    -.213937482783D-09  .100000000000D+01  .166400000000D+04  .000000000000D+00
     .240000000000D+01  .000000000000D+00 -.116415321827D-07  .900000000000D+01
     .549786000000D+06  .400000000000D+01
16 11 12  3  9 59 44.0 -.212038401514D-03 -.193267624127D-11  .000000000000D+00
     .900000000000D+01 -.878125000000D+01  .436268172321D-08  .236183153341D+01
    -.312924385071D-06  .619513751008D-02  .642240047455D-05  .515356795502D+04
     .554384000000D+06 -.106170773506D-06 -.284411492137D-01  .188127160072D-06
     .978817268674D+00  .265843750000D+03 -.781253450228D-01 -.797604652007D-08
     .250367571671D-09  .100000000000D+01  .166400000000D+04  .000000000000D+00
     .240000000000D+01  .000000000000D+00 -.977888703346D-08  .900000000000D+01
     .552606000000D+06  .400000000000D+01
11 11 12  3 11 59 44.0 -.209679827094D-03 -.352429196937D-11  .000000000000D+00
     .250000000000D+02 -.107500000000D+02  .640098091226D-08 -.190616644314D+00
    -.428408384323D-06  .126589824213D-01  .882893800735D-05  .515367092896D+04
     .561584000000D+06 -.465661287308D-07  .176307785234D+01  .165775418282D-06
     .887586221357D+00  .168937500000D+03  .100847386143D+01 -.908323549607D-08
    -.188579283656D-09  .100000000000D+01  .166400000000D+04  .000000000000D+00
     .240000000000D+01  .000000000000D+00 -.116415321827D-07  .250000000000D+02
     .554406000000D+06  .400000000000D+01
16 11 12  3 11 59 44.0 -.212052371353D-03 -.193267624127D-11  .000000000000D+00
     .100000000000D+02 -.240625000000D+01  .433303763127D-08 -.287104959997D+01
    -.149011611938D-07  .619652471505D-02  .688433647156D-05  .515356526375D+04
     .561584000000D+06 -.126659870148D-06 -.284984195307D-01  .931322574615D-08
     .978819841947D+00  .257843750000D+03 -.781841777363D-01 -.785854162552D-08
     .312155859687D-09  .100000000000D+01  .166400000000D+04  .000000000000D+00
     .240000000000D+01  .000000000000D+00 -.977888703346D-08  .100000000000D+02
     .554406000000D+06  .400000000000D+01
29 11 12  3 11 59 44.0  .262783840299D-03  .329691829393D-11  .000000000000D+00
     .380000000000D+02 -.418750000000D+02  .474019744825D-08 -.103403535881D+01
    -.217370688915D-05  .209588638972D-02  .744499266148D-05  .515367636108D+04
     .561584000000D+06 -.279396772385D-07  .102124689030D+01 -.726431608200D-07
     .962335537664D+00  .233843750000D+03 -.118829577660D+01 -.819284126472D-08
    -.203222750758D-09  .100000000000D+01  .166400000000D+04  .000000000000D+00
     .240000000000D+01  .000000000000D+00 -.931322574615D-08  .380000000000D+02
     .554406000000D+06  .400000000000D+01
 1 11 12  3 12  0  0.0  .125105492771D-03  .179625203600D-10  .000000000000D+00
     .620000000000D+02  .108437500000D+02  .452483133453D-08 -.878144018497D+00
     .489875674248D-06  .544171431102D-03  .961869955063D-05  .515366478539D+04
     .561600000000D+06 -.111758708954D-07  .202016255117D+01  .186264514923D-08
     .959893498754D+00  .190781250000D+03  .127437538904D+01 -.796176021070D-08
    -.164292557730D-09  .100000000000D+01  .166400000000D+04  .000000000000D+00
     .240000000000D+01  .000000000000D+00  .791624188423D-08  .620000000000D+02
     .554406000000D+06  .400000000000D+01
 2 11 12  3 12  0  0.0  .368500128388D-03  .170530256582D-11  .000000000000D+00
     .300000000000D+02  .215625000000D+02  .505306762341D-08  .116499666009D+01
     .123865902424D-05  .106729546096D-01  .972487032413D-05  .515361021233D+04
     .561600000000D+06 -.279396772385D-07  .201024091641D+01  .178813934326D-06
     .938471638219D+00  .181250000000D+03 -.290814896401D+01 -.828605943335D-08
    -.276797244002D-09  .100000000000D+01  .166400000000D+04  .000000000000D+00
     .240000000000D+01  .000000000000D+00 -.176951289177D-07  .300000000000D+02
     .554406000000D+06  .400000000000D+01
 3 11 12  3 12  0  0.0  .803267583251D-03  .511590769747D-11  .000000000000D+00
     .110000000000D+02 -.437812500000D+02  .563987778069D-08  .130628049274D+01
    -.234879553318D-05  .149284325307D-01  .656396150589D-05  .515368739128D+04
     .561600000000D+06 -.309199094772D-06  .848873915532D+00 -.558793544769D-07
     .929895681819D+00  .241593750000D+03  .116049058860D+01 -.874929301460D-08
    -.122862260563D-09  .100000000000D+01  .166400000000D+04  .000000000000D+00
     .240000000000D+01  .000000000000D+00 -.465661287308D-08  .110000000000D+02
     .554406000000D+06  .400000000000D+01
 4 11 12  3 12  0  0.0  .221561640501D-04  .112549969344D-10  .000000000000D+00
     .660000000000D+02  .221875000000D+02  .498877923125D-08 -.197534425642D+01
     .105611979961D-05  .100032795453D-01  .924803316593D-05  .515375182343D+04
     .561600000000D+06  .987201929092D-07  .202736780600D+01 -.707805156708D-07
     .937554492451D+00  .187781250000D+03  .807390409840D+00 -.808176520939D-08
    -.264296723305D-10  .100000000000D+01  .166400000000D+04  .000000000000D+00
     .240000000000D+01  .000000000000D+00 -.651925802231D-08  .660000000000D+02
     .554406000000D+06  .400000000000D+01
 5 11 12  3 12  0  0.0 -.253139995039D-03 -.488853402203D-11  .000000000000D+00
     .190000000000D+02  .585312500000D+02  .481162899509D-08  .306203006470D+01
     .300630927086D-05  .258787686471D-02  .621750950813D-05  .515356253433D+04
     .561600000000D+06  .223517417908D-07  .307270162784D+01 -.223517417908D-07
     .952783008837D+00  .257531250000D+03  .238807023751D+00 -.827427322812D-08
     .257153568621D-10  .100000000000D+01  .166400000000D+04  .000000000000D+00
     .240000000000D+01  .000000000000D+00 -.102445483208D-07  .190000000000D+02
     .554406000000D+06  .400000000000D+01
 6 11 12  3 12  0  0.0  .107195228338D-04  .454747350886D-11  .000000000000D+00
     .400000000000D+01 -.425000000000D+02  .532450750140D-08 -.302070999914D+01
    -.207871198654D-05  .673942593858D-02  .642426311970D-05  .515370113182D+04
     .561600000000D+06 -.372529029846D-07  .924082444749D+00  .912696123123D-07
     .936844738727D+00  .241125000000D+03 -.641452464990D+00 -.833141846559D-08
    -.907180644858D-10  .100000000000D+01  .166400000000D+04  .000000000000D+00
     .240000000000D+01  .000000000000D+00 -.512227416039D-08  .400000000000D+01
     .554406000000D+06  .400000000000D+01
 7 11 12  3 12  0  0.0  .410219654441D-04  .227373675443D-11  .000000000000D+00
     .250000000000D+02 -.158750000000D+02  .406374069968D-08 -.377262444735D+00
    -.776723027229D-06  .509122549556D-02  .800006091595D-05  .515363152122D+04
     .561600000000D+06  .782310962677D-07 -.110196473097D+01  .931322574615D-08
     .975284669687D+00  .232062500000D+03 -.301539620962D+01 -.794604527039D-08
     .123933733766D-09  .100000000000D+01  .166400000000D+04  .000000000000D+00
     .240000000000D+01  .000000000000D+00 -.111758708954D-07  .250000000000D+02
     .554406000000D+06  .400000000000D+01
